STARLINK-31648          
1 59266U 24050N   26068.58626419 -.00000150  00000+0  70549-5 0  9998
2 59266  53.1593 181.4092 0001288  68.0542 292.0596 15.30175540110539
YAOGAN-43 01D           
1 60461U 24148D   26068.43560480  .00010676  00000+0  37766-3 0  9999
2 60461  35.0010  61.7102 0002556 326.2473  33.8080 15.28369377 87008
